SPAWAR-CAL-R            
1 43776U 18099U   26067.65115975  .00003570  00000+0  25336-3 0  9990
2 43776  97.4524 111.5817 0019701 348.9052  11.1737 15.05212097396878
STARLINK-3394           
1 51118U 22005Q   26068.88304626  .00000221  00000+0  32003-4 0  9990
2 51118  53.2169 288.2551 0001347  89.7180 270.3966 15.08841259228900
